{
    "UNKNOWN": {
        "observation_time": null,
        "temperature": 0,
        "dew_point": 0,
        "wind_direction": 0,
        "wind_speed": 0,
        "wind_gust": 0,
        "flt_cat": "MISSING",
        "visibility": 0,
        "altimeter": 0,
        "cloud_coverage": [],
        "ceiling": 0,
        "precip": "MISSING",
        "raw_observation": "N/A",
        "lightning": false
    },
    "KAPA": {
        "observation_time": "2024-10-02T00:53:00Z",
        "temperature": 18.3,
        "dew_point": 0,
        "wind_direction": 0,
        "wind_speed": 0,
        "wind_gust": 0,
        "flt_cat": "VFR",
        "visibility": "10+",
        "altimeter": 1024.5,
        "cloud_coverage": [],
        "ceiling": 0,
        "precip": "MISSING",
        "raw_observation": "KAPA 020053Z 00000KT 10SM FEW120 FEW230 18/00 A3025 RMK AO2 SLP211 T01830000",
        "lightning": false
    },
    "KBKF": {
        "observation_time": "2024-10-02T00:58:00Z",
        "temperature": 18.8,
        "dew_point": -1.7,
        "wind_direction": 0,
        "wind_speed": 0,
        "wind_gust": 0,
        "flt_cat": "VFR",
        "visibility": "10+",
        "altimeter": 1023.5,
        "cloud_coverage": [],
        "ceiling": 0,
        "precip": "MISSING",
        "raw_observation": "KBKF 020058Z 00000KT 10SM FEW140 SCT220 19/M02 A3022 RMK AO2A SLP193 T01881017",
        "lightning": false
    },
    "KCFO": {
        "observation_time": "2024-10-02T00:47:00Z",
        "temperature": 18,
        "dew_point": -2,
        "wind_direction": 290,
        "wind_speed": 8,
        "wind_gust": 0,
        "flt_cat": "VFR",
        "visibility": "10+",
        "altimeter": 1024.1,
        "cloud_coverage": [],
        "ceiling": 0,
        "precip": "MISSING",
        "raw_observation": "KCFO 020047Z 29008KT 10SM CLR 18/M02 A3024",
        "lightning": false
    },
    "KDEN": {
        "observation_time": "2024-10-02T00:53:00Z",
        "temperature": 18.3,
        "dew_point": -0.6,
        "wind_direction": 270,
        "wind_speed": 7,
        "wind_gust": 0,
        "flt_cat": "VFR",
        "visibility": "10+",
        "altimeter": 1023.5,
        "cloud_coverage": [],
        "ceiling": 0,
        "precip": "MISSING",
        "raw_observation": "KDEN 020053Z 27007KT 10SM FEW250 18/M01 A3022 RMK AO2 SLP191 T01831006",
        "lightning": false
    },
    "KBJC": {
        "observation_time": "2024-10-02T00:47:00Z",
        "temperature": 19,
        "dew_point": -2,
        "wind_direction": "VRB",
        "wind_speed": 3,
        "wind_gust": 0,
        "flt_cat": "VFR",
        "visibility": "10+",
        "altimeter": 1024.5,
        "cloud_coverage": [],
        "ceiling": 0,
        "precip": "HZ",
        "raw_observation": "KBJC 020047Z VRB03KT 10SM SKC 19/M02 A3025 HZ",
        "lightning": false
    },
    "KBDU": {
        "observation_time": "2024-10-02T01:15:00Z",
        "temperature": 17,
        "dew_point": 2,
        "wind_direction": 220,
        "wind_speed": 3,
        "wind_gust": 0,
        "flt_cat": "VFR",
        "visibility": "10+",
        "altimeter": 1023.1,
        "cloud_coverage": [],
        "ceiling": 0,
        "precip": "MISSING",
        "raw_observation": "KBDU 020115Z AUTO 22003KT 10SM CLR 17/02 A3021 RMK AO2",
        "lightning": false
    },
    "KEIK": {
        "observation_time": "2024-10-02T01:15:00Z",
        "temperature": 14.2,
        "dew_point": 1.8,
        "wind_direction": 0,
        "wind_speed": 0,
        "wind_gust": 0,
        "flt_cat": "VFR",
        "visibility": 9,
        "altimeter": 1022.4,
        "cloud_coverage": [],
        "ceiling": 0,
        "precip": "MISSING",
        "raw_observation": "KEIK 020115Z AUTO 00000KT 9SM CLR 14/02 A3019 RMK AO2 T01420018",
        "lightning": false
    },
    "KLMO": {
        "observation_time": "2024-10-02T01:15:00Z",
        "temperature": 15.4,
        "dew_point": 2.1,
        "wind_direction": 260,
        "wind_speed": 4,
        "wind_gust": 0,
        "flt_cat": "VFR",
        "visibility": "10+",
        "altimeter": 1023.5,
        "cloud_coverage": [],
        "ceiling": 0,
        "precip": "MISSING",
        "raw_observation": "KLMO 020115Z AUTO 26004KT 10SM CLR 15/02 A3022 RMK AO2 T01540021",
        "lightning": false
    },
    "KFNL": {
        "observation_time": "2024-10-02T00:56:00Z",
        "temperature": 18.3,
        "dew_point": 0,
        "wind_direction": 0,
        "wind_speed": 0,
        "wind_gust": 0,
        "flt_cat": "VFR",
        "visibility": "10+",
        "altimeter": 1023.1,
        "cloud_coverage": [],
        "ceiling": 0,
        "precip": "MISSING",
        "raw_observation": "KFNL 020056Z AUTO 00000KT 10SM CLR 18/00 A3021 RMK AO2 SLP204 T01830000 PNO $",
        "lightning": false
    },
    "KGXY": {
        "observation_time": "2024-10-02T00:56:00Z",
        "temperature": 16.7,
        "dew_point": 0.6,
        "wind_direction": 310,
        "wind_speed": 5,
        "wind_gust": 0,
        "flt_cat": "VFR",
        "visibility": "10+",
        "altimeter": 1022.4,
        "cloud_coverage": [],
        "ceiling": 0,
        "precip": "MISSING",
        "raw_observation": "KGXY 020056Z AUTO 31005KT 10SM CLR 17/01 A3019 RMK AO2 SLP222 T01670006",
        "lightning": false
    },
    "KFMM": {
        "observation_time": "2024-10-02T01:15:00Z",
        "temperature": 18,
        "dew_point": 0,
        "wind_direction": 140,
        "wind_speed": 9,
        "wind_gust": 0,
        "flt_cat": "VFR",
        "visibility": "10+",
        "altimeter": 1021.8,
        "cloud_coverage": [],
        "ceiling": 0,
        "precip": "MISSING",
        "raw_observation": "KFMM 020115Z AUTO 14009KT 10SM CLR 18/00 A3017 RMK AO2",
        "lightning": false
    },
    "KMRC": {
        "observation_time": "2024-10-02T01:10:00Z",
        "temperature": 20,
        "dew_point": 20,
        "wind_direction": 0,
        "wind_speed": 0,
        "wind_gust": 0,
        "flt_cat": "VFR",
        "visibility": "10+",
        "altimeter": 1015.7,
        "cloud_coverage": [],
        "ceiling": 0,
        "precip": "MISSING",
        "raw_observation": "KMRC 020110Z AUTO 00000KT 10SM CLR 20/20 A2999 RMK A01",
        "lightning": false
    },
    "KRKW": {
        "observation_time": "2024-10-02T01:15:00Z",
        "temperature": 21,
        "dew_point": 18,
        "wind_direction": 360,
        "wind_speed": 4,
        "wind_gust": 10,
        "flt_cat": "VFR",
        "visibility": "10+",
        "altimeter": 1016.7,
        "cloud_coverage": [],
        "ceiling": 0,
        "precip": "MISSING",
        "raw_observation": "KRKW 020115Z AUTO 36004G10KT 10SM FEW085 21/18 A3002 RMK A01",
        "lightning": false
    },
    "KCRQ": {
        "observation_time": "2024-10-02T00:53:00Z",
        "temperature": 19.4,
        "dew_point": 15,
        "wind_direction": 250,
        "wind_speed": 3,
        "wind_gust": 0,
        "flt_cat": "VFR",
        "visibility": "10+",
        "altimeter": 1011.3,
        "cloud_coverage": [],
        "ceiling": 0,
        "precip": "MISSING",
        "raw_observation": "KCRQ 020053Z AUTO 25003KT 10SM CLR 19/15 A2986 RMK AO2 SLP110 T01940150",
        "lightning": false
    }
}