{
    "UNKNOWN": {
        "observation_time": null,
        "temperature": 0,
        "dew_point": 0,
        "wind_direction": 0,
        "wind_speed": 0,
        "wind_gust": 0,
        "flt_cat": "MISSING",
        "visibility": 0,
        "altimeter": 0,
        "cloud_coverage": [],
        "ceiling": 0,
        "precip": "MISSING",
        "raw_observation": "N/A",
        "lightning": false
    },
    "KAPA": {
        "observation_time": "2024-09-25T18:53:00Z",
        "temperature": 26.7,
        "dew_point": 1.7,
        "wind_direction": 120,
        "wind_speed": 8,
        "wind_gust": 0,
        "flt_cat": "VFR",
        "visibility": "10+",
        "altimeter": 1022.1,
        "cloud_coverage": [],
        "ceiling": 0,
        "precip": "MISSING",
        "raw_observation": "KAPA 251853Z 12008KT 10SM FEW220 27/02 A3018 RMK AO2 SLP157 T02670017",
        "lightning": false
    },
    "KBKF": {
        "observation_time": "2024-09-25T18:58:00Z",
        "temperature": 27.7,
        "dew_point": 1.2,
        "wind_direction": "VRB",
        "wind_speed": 3,
        "wind_gust": 0,
        "flt_cat": "VFR",
        "visibility": "10+",
        "altimeter": 1021.1,
        "cloud_coverage": [],
        "ceiling": 0,
        "precip": "MISSING",
        "raw_observation": "KBKF 251858Z VRB03KT 10SM FEW220 28/01 A3015 RMK AO2A SLP133 T02770012",
        "lightning": false
    },
    "KCFO": {
        "observation_time": "2024-09-25T18:47:00Z",
        "temperature": 28,
        "dew_point": 1,
        "wind_direction": 140,
        "wind_speed": 7,
        "wind_gust": 0,
        "flt_cat": "VFR",
        "visibility": "10+",
        "altimeter": 1021.8,
        "cloud_coverage": [],
        "ceiling": 0,
        "precip": "MISSING",
        "raw_observation": "KCFO 251847Z 14007KT 10SM CLR 28/01 A3017",
        "lightning": false
    },
    "KDEN": {
        "observation_time": "2024-09-25T18:53:00Z",
        "temperature": 27.2,
        "dew_point": 4.4,
        "wind_direction": 150,
        "wind_speed": 7,
        "wind_gust": 0,
        "flt_cat": "VFR",
        "visibility": "10+",
        "altimeter": 1021.1,
        "cloud_coverage": [],
        "ceiling": 0,
        "precip": "MISSING",
        "raw_observation": "KDEN 251853Z 15007KT 10SM CLR 27/04 A3015 RMK AO2 SLP135 T02720044",
        "lightning": false
    },
    "KBJC": {
        "observation_time": "2024-09-25T18:59:00Z",
        "temperature": 28,
        "dew_point": 2,
        "wind_direction": 160,
        "wind_speed": 10,
        "wind_gust": 0,
        "flt_cat": "VFR",
        "visibility": "10+",
        "altimeter": 1021.8,
        "cloud_coverage": [],
        "ceiling": 0,
        "precip": "MISSING",
        "raw_observation": "KBJC 251859Z 16010KT 10SM SKC 28/02 A3017",
        "lightning": false
    },
    "KBDU": {
        "observation_time": "2024-09-25T18:55:00Z",
        "temperature": 28,
        "dew_point": 3,
        "wind_direction": 100,
        "wind_speed": 6,
        "wind_gust": 0,
        "flt_cat": "VFR",
        "visibility": "10+",
        "altimeter": 1020.7,
        "cloud_coverage": [],
        "ceiling": 0,
        "precip": "MISSING",
        "raw_observation": "KBDU 251855Z AUTO 10006KT 10SM CLR 28/03 A3014 RMK AO2",
        "lightning": false
    },
    "KEIK": {
        "observation_time": "2024-09-25T18:55:00Z",
        "temperature": 27.8,
        "dew_point": 3.8,
        "wind_direction": 130,
        "wind_speed": 6,
        "wind_gust": 0,
        "flt_cat": "VFR",
        "visibility": 8,
        "altimeter": 1020.1,
        "cloud_coverage": [],
        "ceiling": 0,
        "precip": "MISSING",
        "raw_observation": "KEIK 251855Z AUTO 13006KT 8SM CLR 28/04 A3012 RMK AO2 T02780038",
        "lightning": false
    },
    "KLMO": {
        "observation_time": "2024-09-25T18:55:00Z",
        "temperature": 29.5,
        "dew_point": 3.2,
        "wind_direction": 130,
        "wind_speed": 7,
        "wind_gust": 0,
        "flt_cat": "VFR",
        "visibility": "10+",
        "altimeter": 1021.1,
        "cloud_coverage": [],
        "ceiling": 0,
        "precip": "MISSING",
        "raw_observation": "KLMO 251855Z AUTO 13007KT 10SM CLR 30/03 A3015 RMK AO2 T02950032",
        "lightning": false
    },
    "KFNL": {
        "observation_time": "2024-09-25T18:56:00Z",
        "temperature": 27.2,
        "dew_point": 6.7,
        "wind_direction": 190,
        "wind_speed": 9,
        "wind_gust": 0,
        "flt_cat": "VFR",
        "visibility": "10+",
        "altimeter": 1020.4,
        "cloud_coverage": [],
        "ceiling": 0,
        "precip": "MISSING",
        "raw_observation": "KFNL 251856Z 19009KT 10SM CLR 27/07 A3013 RMK AO2 SLP146 T02720067 PNO $",
        "lightning": false
    },
    "KGXY": {
        "observation_time": "2024-09-25T18:56:00Z",
        "temperature": 27.8,
        "dew_point": 7.2,
        "wind_direction": "VRB",
        "wind_speed": 5,
        "wind_gust": 0,
        "flt_cat": "VFR",
        "visibility": "10+",
        "altimeter": 1020.1,
        "cloud_coverage": [],
        "ceiling": 0,
        "precip": "MISSING",
        "raw_observation": "KGXY 251856Z AUTO VRB05KT 10SM CLR 28/07 A3012 RMK AO2 SLP167 T02780072",
        "lightning": false
    },
    "KFMM": {
        "observation_time": "2024-09-25T18:55:00Z",
        "temperature": 26,
        "dew_point": 11,
        "wind_direction": 160,
        "wind_speed": 8,
        "wind_gust": 0,
        "flt_cat": "VFR",
        "visibility": "10+",
        "altimeter": 1020.1,
        "cloud_coverage": [],
        "ceiling": 0,
        "precip": "MISSING",
        "raw_observation": "KFMM 251855Z AUTO 16008KT 10SM CLR 26/11 A3012 RMK AO2",
        "lightning": false
    },
    "KMRC": {
        "observation_time": "2024-09-25T18:50:00Z",
        "temperature": 24,
        "dew_point": 19,
        "wind_direction": 0,
        "wind_speed": 0,
        "wind_gust": 0,
        "flt_cat": "MVFR",
        "visibility": "10+",
        "altimeter": 1013,
        "cloud_coverage": [],
        "ceiling": 23,
        "precip": "MISSING",
        "raw_observation": "KMRC 251850Z AUTO 00000KT 10SM BKN023 OVC028 24/19 A2991 RMK A01",
        "lightning": false
    },
    "KRKW": {
        "observation_time": "2024-09-25T18:55:00Z",
        "temperature": 19,
        "dew_point": 19,
        "wind_direction": 0,
        "wind_speed": 0,
        "wind_gust": 0,
        "flt_cat": "MVFR",
        "visibility": 4,
        "altimeter": 1014.6,
        "cloud_coverage": [],
        "ceiling": 0,
        "precip": "BR",
        "raw_observation": "KRKW 251855Z AUTO 00000KT 4SM BR CLR 19/19 A2996 RMK A01 P0011",
        "lightning": false
    },
    "KCRQ": {
        "observation_time": "2024-09-25T19:00:00Z",
        "temperature": 17.2,
        "dew_point": 15,
        "wind_direction": "VRB",
        "wind_speed": 4,
        "wind_gust": 0,
        "flt_cat": "VFR",
        "visibility": 9,
        "altimeter": 1011.6,
        "cloud_coverage": [],
        "ceiling": 0,
        "precip": "MISSING",
        "raw_observation": "KCRQ 251900Z VRB04KT 9SM 17/15 A2987 RMK AO2 T01720150 $",
        "lightning": false
    }
}