{
    "UNKNOWN": {
        "observation_time": null,
        "temperature": 0,
        "dew_point": 0,
        "wind_direction": 0,
        "wind_speed": 0,
        "wind_gust": 0,
        "flt_cat": "MISSING",
        "visibility": 0,
        "altimeter": 0,
        "cloud_coverage": [],
        "ceiling": 0,
        "precip": "MISSING",
        "raw_observation": "N/A",
        "lightning": false
    },
    "KAPA": {
        "observation_time": "2024-09-26T18:53:00Z",
        "temperature": 30,
        "dew_point": 1.1,
        "wind_direction": "VRB",
        "wind_speed": 5,
        "wind_gust": 0,
        "flt_cat": "VFR",
        "visibility": "10+",
        "altimeter": 1019.7,
        "cloud_coverage": [],
        "ceiling": 0,
        "precip": "MISSING",
        "raw_observation": "KAPA 261853Z VRB05KT 10SM FEW100 30/01 VCTS A3011 RMK AO2 SLP114 T03000011",
        "lightning": false
    },
    "KBKF": {
        "observation_time": "2024-09-26T18:58:00Z",
        "temperature": 30.7,
        "dew_point": -0.9,
        "wind_direction": 0,
        "wind_speed": 0,
        "wind_gust": 0,
        "flt_cat": "MVFR",
        "visibility": "10+",
        "altimeter": 1018.4,
        "cloud_coverage": [],
        "ceiling": 0,
        "precip": "MISSING",
        "raw_observation": "KBKF 261858Z 00000KT 10SM FEW090 31/M01 A3007 RMK AO2A SLP090 T03071009",
        "lightning": false
    },
    "KCFO": {
        "observation_time": "2024-09-26T18:47:00Z",
        "temperature": 32,
        "dew_point": -2,
        "wind_direction": 50,
        "wind_speed": 8,
        "wind_gust": 0,
        "flt_cat": "IFR",
        "visibility": "10+",
        "altimeter": 1019.4,
        "cloud_coverage": [],
        "ceiling": 0,
        "precip": "MISSING",
        "raw_observation": "KCFO 261847Z 05008KT VCTS 10SM CLR 32/M02 A3010",
        "lightning": false
    },
    "KDEN": {
        "observation_time": "2024-09-26T18:53:00Z",
        "temperature": 31.7,
        "dew_point": 2.8,
        "wind_direction": "VRB",
        "wind_speed": 6,
        "wind_gust": 0,
        "flt_cat": "LIFR",
        "visibility": "10+",
        "altimeter": 1018.7,
        "cloud_coverage": [],
        "ceiling": 0,
        "precip": "MISSING",
        "raw_observation": "KDEN 261853Z VRB06KT 10SM FEW110 32/03 A3008 RMK AO2 SLP093 T03170028",
        "lightning": false
    },
    "KBJC": {
        "observation_time": "2024-09-26T18:51:00Z",
        "temperature": 32,
        "dew_point": 3,
        "wind_direction": 70,
        "wind_speed": 8,
        "wind_gust": 0,
        "flt_cat": "VFR",
        "visibility": 50,
        "altimeter": 1019,
        "cloud_coverage": [],
        "ceiling": 0,
        "precip": "MISSING",
        "raw_observation": "KBJC 261851Z 07008KT 50SM SKC 32/03 A3009",
        "lightning": false
    },
    "KBDU": {
        "observation_time": "2024-09-26T19:15:00Z",
        "temperature": 32,
        "dew_point": 2,
        "wind_direction": 90,
        "wind_speed": 4,
        "wind_gust": 0,
        "flt_cat": "VFR",
        "visibility": "10+",
        "altimeter": 1017.7,
        "cloud_coverage": [],
        "ceiling": 0,
        "precip": "MISSING",
        "raw_observation": "KBDU 261915Z AUTO 09004KT 10SM CLR 32/02 A3005 RMK AO2",
        "lightning": false
    },
    "KEIK": {
        "observation_time": "2024-09-26T19:15:00Z",
        "temperature": 31.9,
        "dew_point": 1.1,
        "wind_direction": 70,
        "wind_speed": 4,
        "wind_gust": 10,
        "flt_cat": "VFR",
        "visibility": 9,
        "altimeter": 1017,
        "cloud_coverage": [],
        "ceiling": 0,
        "precip": "MISSING",
        "raw_observation": "KEIK 261915Z AUTO 07004KT 9SM CLR 32/01 A3003 RMK AO2 T03190011",
        "lightning": false
    },
    "KLMO": {
        "observation_time": "2024-09-26T19:15:00Z",
        "temperature": 33.5,
        "dew_point": 1.8,
        "wind_direction": 90,
        "wind_speed": 4,
        "wind_gust": 0,
        "flt_cat": "VFR",
        "visibility": 7,
        "altimeter": 1018,
        "cloud_coverage": [],
        "ceiling": 0,
        "precip": "MISSING",
        "raw_observation": "KLMO 261915Z AUTO 09004KT 7SM CLR 34/02 A3006 RMK AO2 T03350018",
        "lightning": false
    },
    "KFNL": {
        "observation_time": "2024-09-26T18:56:00Z",
        "temperature": 31.7,
        "dew_point": 6.7,
        "wind_direction": 150,
        "wind_speed": 8,
        "wind_gust": 0,
        "flt_cat": "VFR",
        "visibility": "10+",
        "altimeter": 1017.7,
        "cloud_coverage": [],
        "ceiling": 0,
        "precip": "MISSING",
        "raw_observation": "KFNL 261856Z 15008KT 10SM CLR 32/07 A3005 RMK AO2 SLP109 T03170067 PNO $",
        "lightning": false
    },
    "KGXY": {
        "observation_time": "2024-09-26T18:56:00Z",
        "temperature": 31.1,
        "dew_point": 7.2,
        "wind_direction": 160,
        "wind_speed": 6,
        "wind_gust": 0,
        "flt_cat": "VFR",
        "visibility": "10+",
        "altimeter": 1017,
        "cloud_coverage": [],
        "ceiling": 0,
        "precip": "MISSING",
        "raw_observation": "KGXY 261856Z AUTO 16006KT 10SM CLR 31/07 A3003 RMK AO2 SLP127 T03110072",
        "lightning": false
    },
    "KFMM": {
        "observation_time": "2024-09-26T19:15:00Z",
        "temperature": 29,
        "dew_point": 11,
        "wind_direction": "VRB",
        "wind_speed": 4,
        "wind_gust": 0,
        "flt_cat": "VFR",
        "visibility": "10+",
        "altimeter": 1016.3,
        "cloud_coverage": [],
        "ceiling": 0,
        "precip": "MISSING",
        "raw_observation": "KFMM 261915Z AUTO VRB04KT 10SM CLR 29/11 A3001 RMK AO2",
        "lightning": false
    },
    "KMRC": {
        "observation_time": "2024-09-26T19:10:00Z",
        "temperature": 27,
        "dew_point": 15,
        "wind_direction": 360,
        "wind_speed": 8,
        "wind_gust": 13,
        "flt_cat": "VFR",
        "visibility": "10+",
        "altimeter": 1008.5,
        "cloud_coverage": [],
        "ceiling": 0,
        "precip": "MISSING",
        "raw_observation": "KMRC 261910Z AUTO 36008G13KT 320V040 10SM SCT042 27/15 A2978 RMK A01",
        "lightning": false
    },
    "KRKW": {
        "observation_time": "2024-09-26T18:20:00Z",
        "temperature": 19,
        "dew_point": 18,
        "wind_direction": 30,
        "wind_speed": 4,
        "wind_gust": 0,
        "flt_cat": "MVFR",
        "visibility": "10+",
        "altimeter": 1010.9,
        "cloud_coverage": [],
        "ceiling": 16,
        "precip": "MISSING",
        "raw_observation": "KRKW 261820Z AUTO 03004KT 10SM FEW006 BKN016 OVC070 19/18 A2985 RMK A01",
        "lightning": false
    },
    "KCRQ": {
        "observation_time": "2024-09-26T18:53:00Z",
        "temperature": 19.4,
        "dew_point": 14.4,
        "wind_direction": 260,
        "wind_speed": 6,
        "wind_gust": 0,
        "flt_cat": "VFR",
        "visibility": "10+",
        "altimeter": 1012.3,
        "cloud_coverage": [],
        "ceiling": 0,
        "precip": "MISSING",
        "raw_observation": "KCRQ 261853Z 26006KT 10SM CLR 19/14 A2989 RMK AO2 SLP118 T01940144",
        "lightning": false
    }
}